H1 CPF  1  DLR 2022 03 06 10  5652 technosat            
H2  1704205 6203    42829 2022 03 06 00 00 00 2022 03 13 00 00 00    60 1 1  0 0 0
H9
10 0 59644  72000.000000  0       3333290.353       -716891.817      -6093586.872
10 0 59644  72060.000000  0       2925359.598       -765352.374      -6293287.940
10 0 59644  72120.000000  0       2504812.862       -806990.490      -6466504.236
10 0 59644  72180.000000  0       2073468.772       -841529.959      -6612508.528
10 0 59644  72240.000000  0       1633192.634       -868740.189      -6730686.745
10 0 59644  72300.000000  0       1185888.500       -888437.545      -6820540.416
10 0 59644  72360.000000  0        733491.047       -900486.382      -6881688.689
10 0 59644  72420.000000  0        277957.339       -904799.800      -6913869.825
10 0 59644  72480.000000  0       -178741.417       -901340.177      -6916942.230
10 0 59644  72540.000000  0       -634628.147       -890119.444      -6890885.166
10 0 59644  72600.000000  0      -1087728.349       -871199.093      -6835799.011
10 0 59644  72660.000000  0      -1536078.498       -844689.880      -6751904.981
10 0 59644  72720.000000  0      -1977734.431       -810751.274      -6639544.417
10 0 59644  72780.000000  0      -2410779.653       -769590.665      -6499177.556
10 0 59644  72840.000000  0      -2833333.473       -721462.289      -6331381.906
10 0 59644  72900.000000  0      -3243559.092       -666665.902      -6136850.302
10 0 59644  72960.000000  0      -3639671.684       -605545.200      -5916388.484
10 0 59644  73020.000000  0      -4019946.340       -538485.972      -5670912.098
10 0 59644  73080.000000  0      -4382725.718       -465913.994      -5401443.204
10 0 59644  73140.000000  0      -4726427.450       -388292.700      -5109106.391
10 0 59644  73200.000000  0      -5049551.306       -306120.643      -4795124.441
10 0 59644  73260.000000  0      -5350686.070       -219928.732      -4460813.578
10 0 59644  73320.000000  0      -5628516.172       -130277.243      -4107578.264
10 0 59644  73380.000000  0      -5881827.898        -37752.593      -3736905.458
10 0 59644  73440.000000  0      -6109515.065         57036.028      -3350358.482
10 0 59644  73500.000000  0      -6310584.337        153460.141      -2949570.585
10 0 59644  73560.000000  0      -6484160.084        250875.696      -2536238.077
10 0 59644  73620.000000  0      -6629488.631        348626.930      -2112113.092
10 0 59644  73680.000000  0      -6745941.960        446050.242      -1678996.094
10 0 59644  73740.000000  0      -6833020.930        542478.163      -1238728.050
10 0 59644  73800.000000  0      -6890357.785        637243.397       -793182.260
10 0 59644  73860.000000  0      -6917717.876        729682.889       -344256.042
10 0 59644  73920.000000  0      -6915000.760        819141.875        106137.582
10 0 59644  73980.000000  0      -6882240.736        904977.917        556078.311
10 0 59644  74040.000000  0      -6819606.724        986564.893       1003647.102
10 0 59644  74100.000000  0      -6727401.455       1063296.905       1446934.727
10 0 59644  74160.000000  0      -6606059.980       1134592.081       1884050.294
10 0 59644  74220.000000  0      -6456147.488       1199896.245       2313129.691
10 0 59644  74280.000000  0      -6278356.474       1258686.431       2732343.855
10 0 59644  74340.000000  0      -6073503.281       1310474.221       3139906.895
10 0 59644  74400.000000  0      -5842523.981       1354808.877       3534083.925
10 0 59644  74460.000000  0      -5586469.748       1391280.259       3913198.605
10 0 59644  74520.000000  0      -5306501.689       1419521.528       4275640.378
10 0 59644  74580.000000  0      -5003885.180       1439211.586       4619871.365
10 0 59644  74640.000000  0      -4679983.755       1450077.246       4944432.871
10 0 59644  74700.000000  0      -4336252.601       1451895.148       5247951.496
10 0 59644  74760.000000  0      -3974231.693       1444493.399       5529144.859
10 0 59644  74820.000000  0      -3595538.540       1427752.929       5786826.895
10 0 59644  74880.000000  0      -3201860.685       1401608.525       6019912.716
10 0 59644  74940.000000  0      -2794947.860       1366049.631       6227423.048
10 0 59644  75000.000000  0      -2376603.889       1321120.828       6408488.072
10 0 59644  75060.000000  0      -1948678.462       1266921.986       6562350.792
10 0 59644  75120.000000  0      -1513058.778       1203608.118       6688369.890
10 0 59644  75180.000000  0      -1071661.142       1131388.960       6786022.093
10 0 59644  75240.000000  0       -626422.513       1050528.273       6854904.096
10 0 59644  75300.000000  0       -179291.988        961342.829       6894734.020
10 0 59644  75360.000000  0        267777.697        864201.106       6905352.371
10 0 59644  75420.000000  0        712838.659        759521.751       6886722.535
10 0 59644  75480.000000  0       1153956.301        647771.750       6838930.786
10 0 59644  75540.000000  0       1589217.654        529464.333       6762185.818
10 0 59644  75600.000000  0       2016739.594        405156.629       6656817.807
10 0 59644  75660.000000  0       2434676.924        275447.069       6523277.043
10 0 59644  75720.000000  0       2841230.345        140972.540       6362132.095
10 0 59644  75780.000000  0       3234654.220          2405.313       6174067.427
10 0 59644  75840.000000  0       3613264.053       -139550.235       5959880.565
10 0 59644  75900.000000  0       3975443.731       -284161.115       5720478.844
10 0 59644  75960.000000  0       4319652.471       -430669.399       5456875.692
10 0 59644  76020.000000  0       4644431.458       -578296.058       5170186.514
10 0 59644  76080.000000  0       4948410.181       -726244.959       4861624.119
10 0 59644  76140.000000  0       5230312.340       -873707.007       4532493.664
10 0 59644  76200.000000  0       5488961.327      -1019864.375       4184187.311
10 0 59644  76260.000000  0       5723285.406      -1163894.894       3818178.454
10 0 59644  76320.000000  0       5932322.326      -1304976.450       3436015.477
10 0 59644  76380.000000  0       6115223.430      -1442291.434       3039315.265
10 0 59644  76440.000000  0       6271257.309      -1575031.243       2629756.361
10 0 59644  76500.000000  0       6399812.873      -1702400.737       2209071.835
10 0 59644  76560.000000  0       6500401.890      -1823622.684       1779041.910
10 0 59644  76620.000000  0       6572660.947      -1937942.149       1341486.358
10 0 59644  76680.000000  0       6616352.851      -2044630.834        898256.694
10 0 59644  76740.000000  0       6631367.407      -2142991.332        451228.175
10 0 59644  76800.000000  0       6617721.565      -2232361.166          2291.686
10 0 59644  76860.000000  0       6575558.976      -2312116.647       -446654.393
10 0 59644  76920.000000  0       6505148.977      -2381676.627       -893712.366
10 0 59644  76980.000000  0       6406884.940      -2440506.045      -1336993.410
10 0 59644  77040.000000  0       6281282.028      -2488119.222      -1774625.691
10 0 59644  77100.000000  0       6128974.389      -2524082.892      -2204762.353
10 0 59644  77160.000000  0       5950711.816      -2548018.972      -2625589.380
10 0 59644  77220.000000  0       5747355.879      -2559607.056      -3035333.266
10 0 59644  77280.000000  0       5519875.573      -2558586.625      -3432268.455
10 0 59644  77340.000000  0       5269342.541      -2544758.979      -3814724.550
10 0 59644  77400.000000  0       4996925.851      -2517988.844      -4181093.283
10 0 59644  77460.000000  0       4703886.337      -2478205.672      -4529835.185
10 0 59644  77520.000000  0       4391570.546      -2425404.620      -4859485.914
10 0 59644  77580.000000  0       4061404.326      -2359647.183      -5168662.194
10 0 59644  77640.000000  0       3714886.156      -2281061.498      -5456067.344
10 0 59644  77700.000000  0       3353580.245      -2189842.342      -5720496.406
10 0 59644  77760.000000  0       2979109.471      -2086250.793      -5960840.915
10 0 59644  77820.000000  0       2593148.139      -1970613.598      -6176093.318
10 0 59644  77880.000000  0       2197414.498      -1843322.223      -6365351.041
10 0 59644  77940.000000  0       1793663.065      -1704831.524      -6527820.041
10 0 59644  78000.000000  0       1383676.892      -1555658.133      -6662817.861
10 0 59644  78060.000000  0        969259.822      -1396378.580      -6769776.244
10 0 59644  78120.000000  0        552228.722      -1227627.153      -6848243.407
10 0 59644  78180.000000  0        134405.619      -1050093.400      -6897885.830
10 0 59644  78240.000000  0       -282390.056       -864519.393      -6918489.547
10 0 59644  78300.000000  0       -696349.169       -671696.761      -6909961.128
10 0 59644  78360.000000  0      -1105680.639       -472463.406      -6872328.189
10 0 59644  78420.000000  0      -1508619.073       -267699.939      -6805739.369
10 0 59644  78480.000000  0      -1903432.232        -58325.905      -6710463.870
10 0 59644  78540.000000  0      -2288428.378        154704.203      -6586890.561
10 0 59644  78600.000000  0      -2661963.406        370405.156      -6435526.648
10 0 59644  78660.000000  0      -3022447.828        587765.418      -6256995.934
10 0 59644  78720.000000  0      -3368353.568        805751.776      -6052036.634
10 0 59644  78780.000000  0      -3698220.590       1023314.132      -5821498.706
10 0 59644  78840.000000  0      -4010663.234       1239390.426      -5566340.653
10 0 59644  78900.000000  0      -4304376.201       1452911.724      -5287625.945
10 0 59644  78960.000000  0      -4578140.314       1662807.496      -4986519.016
10 0 59644  79020.000000  0      -4830827.929       1868010.992      -4664280.664
10 0 59644  79080.000000  0      -5061407.875       2067464.610      -4322262.999
10 0 59644  79140.000000  0      -5268949.997       2260125.300      -3961904.035
99
